{
    "links": {
        "self": "http://www.neowsapp.com/rest/v1/neo/3484643?api_key=iIulBulltgU6a56xZRHN4H3l9WmuAYTsLGpBGhQ2"
    },
    "id": "3484643",
    "neo_reference_id": "3484643",
    "name": "(2010 AR1)",
    "designation": "2010 AR1",
    "nasa_jpl_url": "http://ssd.jpl.nasa.gov/sbdb.cgi?sstr=3484643",
    "absolute_magnitude_h": 25.8,
    "estimated_diameter": {
        "kilometers": {
            "estimated_diameter_min": 0.0183888672,
            "estimated_diameter_max": 0.0411187571
        },
        "meters": {
            "estimated_diameter_min": 18.388867207,
            "estimated_diameter_max": 41.1187571041
        },
        "miles": {
            "estimated_diameter_min": 0.0114263088,
            "estimated_diameter_max": 0.0255500032
        },
        "feet": {
            "estimated_diameter_min": 60.3309310875,
            "estimated_diameter_max": 134.9040630575
        }
    },
    "is_potentially_hazardous_asteroid": false,
    "close_approach_data": [
        {
            "close_approach_date": "1989-10-09",
            "close_approach_date_full": "1989-Oct-09 04:20",
            "epoch_date_close_approach": 623910000000,
            "relative_velocity": {
                "kilometers_per_second": "8.6742404151",
                "kilometers_per_hour": "31227.2654943541",
                "miles_per_hour": "19403.4083845335"
            },
            "miss_distance": {
                "astronomical": "0.0711459733",
                "lunar": "27.6757836137",
                "kilometers": "10643286.064756871",
                "miles": "6613431.2917559798"
            },
            "orbiting_body": "Mars"
        },
        {
            "close_approach_date": "2009-12-28",
            "close_approach_date_full": "2009-Dec-28 07:41",
            "epoch_date_close_approach": 1261986060000,
            "relative_velocity": {
                "kilometers_per_second": "6.2894630554",
                "kilometers_per_hour": "22642.0669995636",
                "miles_per_hour": "14068.8999087011"
            },
            "miss_distance": {
                "astronomical": "0.0113909163",
                "lunar": "4.4310664407",
                "kilometers": "1704056.815828281",
                "miles": "1058851.8057450378"
            },
            "orbiting_body": "Earth"
        },
        {
            "close_approach_date": "2042-01-11",
            "close_approach_date_full": "2042-Jan-11 09:59",
            "epoch_date_close_approach": 2273047140000,
            "relative_velocity": {
                "kilometers_per_second": "8.6879167106",
                "kilometers_per_hour": "31276.5001580397",
                "miles_per_hour": "19434.0008898664"
            },
            "miss_distance": {
                "astronomical": "0.0808672218",
                "lunar": "31.4573492802",
                "kilometers": "12097564.134097566",
                "miles": "7517077.7813997708"
            },
            "orbiting_body": "Earth"
        },
        {
            "close_approach_date": "2043-09-22",
            "close_approach_date_full": "2043-Sep-22 22:22",
            "epoch_date_close_approach": 2326573320000,
            "relative_velocity": {
                "kilometers_per_second": "20.4480224874",
                "kilometers_per_hour": "73612.8809547415",
                "miles_per_hour": "45740.1815021281"
            },
            "miss_distance": {
                "astronomical": "0.4683171615",
                "lunar": "182.1753758235",
                "kilometers": "70059249.844846005",
                "miles": "43532799.210864669"
            },
            "orbiting_body": "Earth"
        }
    ],
    "orbital_data": {
        "orbit_id": "11",
        "orbit_determination_date": "2017-04-06 08:58:42",
        "first_observation_date": "2010-01-07",
        "last_observation_date": "2010-01-15",
        "data_arc_in_days": 8,
        "observations_used": 40,
        "orbit_uncertainty": "7",
        "minimum_orbit_intersection": ".00309387",
        "jupiter_tisserand_invariant": "4.416",
        "epoch_osculation": "2459000.5",
        "eccentricity": ".371212643953403",
        "semi_major_axis": "1.525830033363932",
        "inclination": ".5578406268509453",
        "ascending_node_longitude": "202.5562908502912",
        "orbital_period": "688.4266360526802",
        "perihelion_distance": ".9594226324553974",
        "perihelion_argument": "227.1327258431241",
        "aphelion_distance": "2.092237434272466",
        "perihelion_time": "2459301.940701244468",
        "mean_anomaly": "202.3671503034287",
        "mean_motion": ".522931538593826",
        "equinox": "J2000",
        "orbit_class": {
            "orbit_class_type": "APO",
            "orbit_class_description": "Near-Earth asteroid orbits which cross the Earth’s orbit similar to that of 1862 Apollo",
            "orbit_class_range": "a (semi-major axis) > 1.0 AU; q (perihelion) < 1.017 AU"
        }
    },
    "is_sentry_object": false
}